[{"OBJECT_NAME":"TIANMU-1 21","OBJECT_ID":"2023-208C","EPOCH":"2026-03-09T21:48:13.065120","MEAN_MOTION":15.33041299,"ECCENTRICITY":0.00059807,"INCLINATION":97.4378,"RA_OF_ASC_NODE":187.7048,"ARG_OF_PERICENTER":317.2488,"MEAN_ANOMALY":42.8288,"EPHEMERIS_TYPE":0,"CLASSIFICATION_TYPE":"U","NORAD_CAT_ID":58662,"ELEMENT_SET_NO":999,"REV_AT_EPOCH":12234,"BSTAR":0.00040063782,"MEAN_MOTION_DOT":0.00012722,"MEAN_MOTION_DDOT":0},{"OBJECT_NAME":"STARLINK-32887","OBJECT_ID":"2025-029S","EPOCH":"2026-03-09T17:05:41.654688","MEAN_MOTION":15.30196082,"ECCENTRICITY":0.00011819,"INCLINATION":53.1596,"RA_OF_ASC_NODE":230.037,"ARG_OF_PERICENTER":88.0108,"MEAN_ANOMALY":272.1028,"EPHEMERIS_TYPE":0,"CLASSIFICATION_TYPE":"U","NORAD_CAT_ID":62964,"ELEMENT_SET_NO":999,"REV_AT_EPOCH":6135,"BSTAR":0.00070857149,"MEAN_MOTION_DOT":0.00020683,"MEAN_MOTION_DDOT":0}]
